BEESAT 9                
1 44412U 19038AC  23062.39826030  .00035832  00000+0  14747-2 0  9995
2 44412  97.6666  40.0593 0015252 326.5025  33.5246 15.23937509202018
JAISAT-1                
1 44419U 19038F   23062.17530146  .00035939  00000+0  14629-2 0  9995
2 44419  97.6663  40.8582 0014237 323.9489  36.0786 15.24322160202351
DUCHIFAT-3              
1 44854U 19089C   23062.23493514  .00012846  00000+0  91415-3 0  9999
2 44854  36.9672   3.5743 0007374 189.9978 309.6303 15.04053080176862
EYESAT-NANO             
1 44877U 19092E   23062.49249515  .00055508  00000+0  17996-2 0  9999
2 44877  97.4597 251.3207 0009502 169.1072 191.0376 15.31752576177863
ORBITAL FACTORY 2 (OF-2)
1 45113U 19071C   23062.42417427  .00549316  00000+0  19056-2 0  9996
2 45113  51.6238 203.4789 0008054 331.8324  28.2244 15.87463891173718
M2 PATHFINDER           
1 45727U 20037E   23061.74825699  .00004989  00000+0  48305-3 0  9991
2 45727  97.7495 237.9000 0011343 258.3139 101.6795 14.93137455145351
NETSAT-4                
1 46504U 20068U   23061.79661519  .00010393  00000+0  71962-3 0  9994
2 46504  97.7483   6.7951 0012193 161.4530 198.7393 15.05795242132885
NETSAT-3                
1 46505U 20068V   23061.82052255  .00010066  00000+0  69873-3 0  9995
2 46505  97.7482   6.6939 0010664 167.3653 192.7843 15.05726565132899
NETSAT-1                
1 46506U 20068W   23061.78178939  .00010891  00000+0  75855-3 0  9992
2 46506  97.7487   6.5583 0007445 181.8247 178.3006 15.05602122132884
NETSAT-2                
1 46507U 20068X   23061.78958201  .00011586  00000+0  80380-3 0  9992
2 46507  97.7479   6.5607 0007641 186.5591 173.5564 15.05728604132830
SAI-1 NANOCONNECT-2     
1 47701U 21015C   23061.67125387  .00041081  00000+0  11094-2 0  9999
2 47701  97.3957 143.3785 0009039 250.8457 109.1810 15.37603894111722
WILDTRACKCUBE-SIMBA     
1 47941U 21022K   23062.44843884  .00012492  00000+0  76588-3 0  9992
2 47941  97.5096 321.4862 0019758 345.9952 122.6772 15.10127321107037
BEESAT-6                
1 47957U 21022AB  23061.65173800  .00022998  00000+0  12495-2 0  9993
2 47957  97.5073 321.6268 0017985 348.8663  11.2168 15.14370197106780
SMOG-1                  
1 47964U 21022AJ  23062.30320806  .00030221  00000+0  15671-2 0  9991
2 47964  97.5104 323.9697 0015462 334.1751  25.8708 15.16001419106004
MMSATS-1                
1 47976U 98067SJ  23062.37856935  .00239683  32465-4  73398-3 0  9990
2 47976  51.6296  85.7327 0006078  31.4079  97.2968 15.91426058110904
BCCSAT-1                
1 48041U 21022AK  23061.54460405  .00020879  00000+0  11341-2 0  9991
2 48041  97.5103 322.4371 0012943 337.7718  22.2951 15.14467648105813
BEESAT-5                
1 48083U 21022AM  23062.23885107  .00033957  00000+0  17965-2 0  9993
2 48083  97.5037 322.2944 0017375 347.7020  12.3786 15.15238589106010
BEESAT-7                
1 48084U 21022AN  23062.14844926  .00025159  00000+0  13547-2 0  9995
2 48084  97.5073 322.1742 0017820 346.2190  13.8553 15.14672680105585
BEESAT-8                
1 48085U 21022AP  23061.24094204  .00014147  00000+0  79901-3 0  9994
2 48085  97.5098 321.1104 0018352 349.6181  10.4669 15.13085848105991
LEDSAT                  
1 49069U 21073D   23062.18094448  .00014248  00000+0  82968-3 0  9996
2 49069  97.4943 134.9620 0026517 125.5000 234.8710 15.11825087 84875
HSU-SAT1                
1 53462U 98067UB  23062.52266628  .01160085  75811-3  16693-2 0  9993
2 53462  51.6233 110.2403 0007547  32.7797 327.3682 16.04849302 31801
1998-067UL              
1 54534U 98067UL  23062.40958331  .00153704  00000+0  15554-2 0  9998
2 54534  51.6362 128.4010 0007010  39.5642 320.5864 15.64244011 14235
1998-067UM              
1 54535U 98067UM  23061.67907354  .00159061  00000+0  14575-2 0  9990
2 54535  51.6396 131.4848 0007771  28.5070 107.0455 15.66704239 14120
1998-067UN              
1 54536U 98067UN  23061.75360019  .00103319  00000+0  11281-2 0  9997
2 54536  51.6433 132.0923 0006667  42.2540  47.3229 15.62509124 14084
1998-067UP              
1 54537U 98067UP  23061.66186322  .00125394  00000+0  12774-2 0  9996
2 54537  51.6377 132.1288 0006732  38.3976  93.3736 15.64184678 14112
MARIO                   
1 55123U 98067UQ  23062.32228679  .00173419  00000+0  18261-2 0  9992
2 55123  51.6392 130.0793 0006813  29.0087 331.1285 15.63162904 10013
NUTSAT                  
1 55124U 98067UR  23062.35660638  .00349974  00000+0  26859-2 0  9994
2 55124  51.6348 128.7947 0010256  24.6778 335.4709 15.70396499 10029
LORIS                   
1 55125U 98067US  23062.55767892  .00126729  00000+0  14812-2 0  9994
2 55125  51.6383 129.3953 0005734  43.5278 316.6167 15.60654737 10056
ORCASAT                 
1 55126U 98067UT  23062.26324244  .00106302  00000+0  13360-2 0  9995
2 55126  51.6395 131.1821 0004973  48.8170 311.3251 15.58838857 10003
TJREVERB                
1 55128U 98067UV  23062.44547903  .00123488  00000+0  14818-2 0  9999
2 55128  51.6382 130.1451 0006984  48.3754 311.7836 15.59971075 10022
SPORT                   
1 55129U 98067UW  23062.39293264  .00058061  00000+0  83381-3 0  9998
2 55129  51.6395 131.2944 0004702  48.1437 311.9955 15.55528355 10005
PETITSAT                
1 55130U 98067UX  23062.44069598  .00285055  00000+0  25882-2 0  9993
2 55130  51.6362 129.3599 0010268  26.5193 333.6326 15.66489827  9988
SS-1                    
1 55181U 98067UY  23062.18110974  .00167602  00000+0  18831-2 0  9998
2 55181  51.6377 131.3785 0009994  25.1142 335.0336 15.61485779  8694
HSKSAT                  
1 55182U 98067UZ  23062.22359835  .00108209  00000+0  13824-2 0  9990
2 55182  51.6379 131.6624 0007957  22.7183 337.4160 15.58375273  8703
OPTIMAL-1               
1 55183U 98067VA  23062.18150328  .00082955  00000+0  11313-2 0  9992
2 55183  51.6401 132.1353 0006029  69.4310 290.7328 15.56766213  8695
